{"type": "FeatureCollection", "features": [ {"type": "Feature", "properties": {"norad_id": 66650, "name": "BEE-1000", "group": "last-30-days", "lat": -2.1643879431278177, "lon": -86.55636338560848, "alt_km": 597.7549667338217, "timestamp": "2025-12-11T22:43:46.024727+00:00", "meta": {"OBJECT_NAME": "BEE-1000", "OBJECT_ID": "2025-274A", "EPOCH": "2025-12-11T14:41:22.187040", "MEAN_MOTION": 14.91655105, "ECCENTRICITY": 0.00103867, "INCLINATION": 97.7386, "RA_OF_ASC_NODE": 272.8204, "ARG_OF_PERICENTER": 255.6819, "MEAN_ANOMALY": 104.3246, "EPHEMERIS_TYPE": 0, "CLASSIFICATION_TYPE": "U", "NORAD_CAT_ID": 66650, "ELEMENT_SET_NO": 999, "REV_AT_EPOCH": 223, "BSTAR": 0.00031598549, "MEAN_MOTION_DOT": 3.123e-05, "MEAN_MOTION_DDOT": 0}, "tle": {"line1": "1 66650U 25274A   25345.61206235  .00003123  00000+0  31599-3 0  9995", "line2": "2 66650  97.7386 272.8204 0010386 255.6819 104.3246 14.91655105  2238"}}, "geometry": {"type": "Point", "coordinates": [-86.55636338560848, -2.1643879431278177]}}, {"type": "Feature", "properties": {"norad_id": 66651, "name": "2025-274B", "group": "last-30-days", "lat": 2.3826917579606506, "lon": -87.17380844578372, "alt_km": 597.4797328603463, "timestamp": "2025-12-11T22:43:46.024737+00:00", "meta": {"OBJECT_NAME": "2025-274B", "OBJECT_ID": "2025-274B", "EPOCH": "2025-12-11T13:03:35.505216", "MEAN_MOTION": 14.91783273, "ECCENTRICITY": 0.00106461, "INCLINATION": 97.7379, "RA_OF_ASC_NODE": 272.7549, "ARG_OF_PERICENTER": 254.9752, "MEAN_ANOMALY": 105.0289, "EPHEMERIS_TYPE": 0, "CLASSIFICATION_TYPE": "U", "NORAD_CAT_ID": 66651, "ELEMENT_SET_NO": 999, "REV_AT_EPOCH": 222, "BSTAR": 0.00066224876, "MEAN_MOTION_DOT": 6.631e-05, "MEAN_MOTION_DDOT": 0}, "tle": {"line1": "1 66651U 25274B   25345.54416094  .00006631  00000+0  66225-3 0  9995", "line2": "2 66651  97.7379 272.7549 0010646 254.9752 105.0289 14.91783273  2221"}}, "geometry": {"type": "Point", "coordinates": [-87.17380844578372, 2.3826917579606506]}}, {"type": "Feature", "properties": {"norad_id": 66652, "name": "2025-274C", "group": "last-30-days", "lat": 9.734207147266448, "lon": -88.1822482538759, "alt_km": 596.1040154653674, "timestamp": "2025-12-11T22:43:46.024748+00:00", "meta": {"OBJECT_NAME": "2025-274C", "OBJECT_ID": "2025-274C", "EPOCH": "2025-12-11T14:38:13.373664", "MEAN_MOTION": 14.91888001, "ECCENTRICITY": 0.00103363, "INCLINATION": 97.7385, "RA_OF_ASC_NODE": 272.8234, "ARG_OF_PERICENTER": 261.7574, "MEAN_ANOMALY": 98.2473, "EPHEMERIS_TYPE": 0, "CLASSIFICATION_TYPE": "U", "NORAD_CAT_ID": 66652, "ELEMENT_SET_NO": 999, "REV_AT_EPOCH": 223, "BSTAR": 0.00036475189, "MEAN_MOTION_DOT": 3.635e-05, "MEAN_MOTION_DDOT": 0}, "tle": {"line1": "1 66652U 25274C   25345.60987701  .00003635  00000+0  36475-3 0  9996", "line2": "2 66652  97.7385 272.8234 0010336 261.7574  98.2473 14.91888001  2239"}}, "geometry": {"type": "Point", "coordinates": [-88.1822482538759, 9.734207147266448]}}, {"type": "Feature", "properties": {"norad_id": 66653, "name": "2025-274D", "group": "last-30-days", "lat": 10.105950823442036, "lon": -88.23452715131603, "alt_km": 596.7709043627883, "timestamp": "2025-12-11T22:43:46.024759+00:00", "meta": {"OBJECT_NAME": "2025-274D", "OBJECT_ID": "2025-274D", "EPOCH": "2025-12-11T13:01:32.590848", "MEAN_MOTION": 14.91895592, "ECCENTRICITY": 0.00111864, "INCLINATION": 97.7384, "RA_OF_ASC_NODE": 272.7573, "ARG_OF_PERICENTER": 257.9802, "MEAN_ANOMALY": 102.0163, "EPHEMERIS_TYPE": 0, "CLASSIFICATION_TYPE": "U", "NORAD_CAT_ID": 66653, "ELEMENT_SET_NO": 999, "REV_AT_EPOCH": 222, "BSTAR": 0.00045559341, "MEAN_MOTION_DOT": 4.556e-05, "MEAN_MOTION_DDOT": 0}, "tle": {"line1": "1 66653U 25274D   25345.54273832  .00004556  00000+0  45559-3 0  9999", "line2": "2 66653  97.7384 272.7573 0011186 257.9802 102.0163 14.91895592  2221"}}, "geometry": {"type": "Point", "coordinates": [-88.23452715131603, 10.105950823442036]}}, {"type": "Feature", "properties": {"norad_id": 66654, "name": "JACK E", "group": "last-30-days", "lat": 19.206100796553848, "lon": -89.55646062773405, "alt_km": 595.9586141811478, "timestamp": "2025-12-11T22:43:46.024768+00:00", "meta": {"OBJECT_NAME": "JACK E", "OBJECT_ID": "2025-274E", "EPOCH": "2025-12-11T12:59:08.746080", "MEAN_MOTION": 14.92071124, "ECCENTRICITY": 0.00118043, "INCLINATION": 97.7386, "RA_OF_ASC_NODE": 272.76, "ARG_OF_PERICENTER": 259.6787, "MEAN_ANOMALY": 100.3101, "EPHEMERIS_TYPE": 0, "CLASSIFICATION_TYPE": "U", "NORAD_CAT_ID": 66654, "ELEMENT_SET_NO": 999, "REV_AT_EPOCH": 222, "BSTAR": 0.00047290712, "MEAN_MOTION_DOT": 4.753e-05, "MEAN_MOTION_DDOT": 0}, "tle": {"line1": "1 66654U 25274E   25345.54107345  .00004753  00000+0  47291-3 0  9999", "line2": "2 66654  97.7386 272.7600 0011804 259.6787 100.3101 14.92071124  2224"}}, "geometry": {"type": "Point", "coordinates": [-89.55646062773405, 19.206100796553848]}}, {"type": "Feature", "properties": {"norad_id": 66655, "name": "2025-274F", "group": "last-30-days", "lat": 26.51991093706087, "lon": -90.72703383257898, "alt_km": 589.365409610019, "timestamp": "2025-12-11T22:43:46.024778+00:00", "meta": {"OBJECT_NAME": "2025-274F", "OBJECT_ID": "2025-274F", "EPOCH": "2025-12-10T14:24:20.623680", "MEAN_MOTION": 14.91412977, "ECCENTRICITY": 0.0004698, "INCLINATION": 97.7323, "RA_OF_ASC_NODE": 271.8405, "ARG_OF_PERICENTER": 22.2473, "MEAN_ANOMALY": 337.8948, "EPHEMERIS_TYPE": 0, "CLASSIFICATION_TYPE": "U", "NORAD_CAT_ID": 66655, "ELEMENT_SET_NO": 999, "REV_AT_EPOCH": 208, "BSTAR": 1.9321e-05, "MEAN_MOTION_DOT": 1.38e-06, "MEAN_MOTION_DDOT": 0}, "tle": {"line1": "1 66655U 25274F   25344.60023870  .00000138  00000+0  19321-4 0  9993", "line2": "2 66655  97.7323 271.8405 0004698  22.2473 337.8948 14.91412977  2082"}}, "geometry": {"type": "Point", "coordinates": [-90.72703383257898, 26.51991093706087]}}, {"type": "Feature", "properties": {"norad_id": 66656, "name": "2025-274G", "group": "last-30-days", "lat": 29.17336669117417, "lon": -91.19109692060493, "alt_km": 595.0004764004598, "timestamp": "2025-12-11T22:43:46.024790+00:00", "meta": {"OBJECT_NAME": "2025-274G", "OBJECT_ID": "2025-274G", "EPOCH": "2025-12-11T14:33:04.434912", "MEAN_MOTION": 14.92262161, "ECCENTRICITY": 0.00124031, "INCLINATION": 97.7384, "RA_OF_ASC_NODE": 272.8279, "ARG_OF_PERICENTER": 261.3024, "MEAN_ANOMALY": 98.679, "EPHEMERIS_TYPE": 0, "CLASSIFICATION_TYPE": "U", "NORAD_CAT_ID": 66656, "ELEMENT_SET_NO": 999, "REV_AT_EPOCH": 223, "BSTAR": 0.00050921088, "MEAN_MOTION_DOT": 5.148e-05, "MEAN_MOTION_DDOT": 0}, "tle": {"line1": "1 66656U 25274G   25345.60630133  .00005148  00000+0  50921-3 0  9997", "line2": "2 66656  97.7384 272.8279 0012403 261.3024  98.6790 14.92262161  2234"}}, "geometry": {"type": "Point", "coordinates": [-91.19109692060493, 29.17336669117417]}}, {"type": "Feature", "properties": {"norad_id": 66657, "name": "SPIRONE", "group": "last-30-days", "lat": 38.88166957841006, "lon": -93.12856985254905, "alt_km": 591.2191504080693, "timestamp": "2025-12-11T22:43:46.024800+00:00", "meta": {"OBJECT_NAME": "SPIRONE", "OBJECT_ID": "2025-274H", "EPOCH": "2025-12-11T12:53:57.336288", "MEAN_MOTION": 14.92440783, "ECCENTRICITY": 0.00108386, "INCLINATION": 97.7381, "RA_OF_ASC_NODE": 272.7639, "ARG_OF_PERICENTER": 280.5004, "MEAN_ANOMALY": 79.4994, "EPHEMERIS_TYPE": 0, "CLASSIFICATION_TYPE": "U", "NORAD_CAT_ID": 66657, "ELEMENT_SET_NO": 999, "REV_AT_EPOCH": 222, "BSTAR": 0.00049920124, "MEAN_MOTION_DOT": 5.067e-05, "MEAN_MOTION_DDOT": 0}, "tle": {"line1": "1 66657U 25274H   25345.53746917  .00005067  00000+0  49920-3 0  9995", "line2": "2 66657  97.7381 272.7639 0010838 280.5004  79.4994 14.92440783  2222"}}, "geometry": {"type": "Point", "coordinates": [-93.12856985254905, 38.88166957841006]}}, {"type": "Feature", "properties": {"norad_id": 66658, "name": "2025-274J", "group": "last-30-days", "lat": 48.28728578682792, "lon": -95.60407247937104, "alt_km": 590.2452238521664, "timestamp": "2025-12-11T22:43:46.024812+00:00", "meta": {"OBJECT_NAME": "2025-274J", "OBJECT_ID": "2025-274J", "EPOCH": "2025-12-11T14:27:59.543136", "MEAN_MOTION": 14.92612623, "ECCENTRICITY": 0.00113994, "INCLINATION": 97.7381, "RA_OF_ASC_NODE": 272.8321, "ARG_OF_PERICENTER": 283.2197, "MEAN_ANOMALY": 76.775, "EPHEMERIS_TYPE": 0, "CLASSIFICATION_TYPE": "U", "NORAD_CAT_ID": 66658, "ELEMENT_SET_NO": 999, "REV_AT_EPOCH": 223, "BSTAR": 0.00047452258, "MEAN_MOTION_DOT": 4.835e-05, "MEAN_MOTION_DDOT": 0}, "tle": {"line1": "1 66658U 25274J   25345.60277249  .00004835  00000+0  47452-3 0  9991", "line2": "2 66658  97.7381 272.8321 0011399 283.2197  76.7750 14.92612623  2233"}}, "geometry": {"type": "Point", "coordinates": [-95.60407247937104, 48.28728578682792]}}, {"type": "Feature", "properties": {"norad_id": 66659, "name": "JACK K", "group": "last-30-days", "lat": 58.22315169335775, "lon": -99.50456008810018, "alt_km": 589.6076408064228, "timestamp": "2025-12-11T22:43:46.024821+00:00", "meta": {"OBJECT_NAME": "JACK K", "OBJECT_ID": "2025-274K", "EPOCH": "2025-12-11T14:25:19.135488", "MEAN_MOTION": 14.92797328, "ECCENTRICITY": 0.00120724, "INCLINATION": 97.7381, "RA_OF_ASC_NODE": 272.835, "ARG_OF_PERICENTER": 284.7853, "MEAN_ANOMALY": 75.2029, "EPHEMERIS_TYPE": 0, "CLASSIFICATION_TYPE": "U", "NORAD_CAT_ID": 66659, "ELEMENT_SET_NO": 999, "REV_AT_EPOCH": 223, "BSTAR": 0.0004536878, "MEAN_MOTION_DOT": 4.642e-05, "MEAN_MOTION_DDOT": 0}, "tle": {"line1": "1 66659U 25274K   25345.60091592  .00004642  00000+0  45369-3 0  9998", "line2": "2 66659  97.7381 272.8350 0012072 284.7853  75.2029 14.92797328  2239"}}, "geometry": {"type": "Point", "coordinates": [-99.50456008810018, 58.22315169335775]}}]}